{"type": "FeatureCollection", "features": [ {"type": "Feature", "properties": {"norad_id": 44542, "name": "BEIDOU-3 M24 (C46)", "group": "beidou", "lat": 49.05000894895565, "lon": -115.42363525245474, "alt_km": 21502.996351381447, "timestamp": "2025-12-16T05:49:09.480246+00:00", "meta": {"OBJECT_NAME": "BEIDOU-3 M24 (C46)", "OBJECT_ID": "2019-061A", "EPOCH": "2025-12-15T01:36:18.331776", "MEAN_MOTION": 1.86229339, "ECCENTRICITY": 0.00095644, "INCLINATION": 54.4001, "RA_OF_ASC_NODE": 188.9375, "ARG_OF_PERICENTER": 24.7073, "MEAN_ANOMALY": 335.4071, "EPHEMERIS_TYPE": 0, "CLASSIFICATION_TYPE": "U", "NORAD_CAT_ID": 44542, "ELEMENT_SET_NO": 999, "REV_AT_EPOCH": 4236, "BSTAR": 0, "MEAN_MOTION_DOT": 1.12e-06, "MEAN_MOTION_DDOT": 0}, "tle": {"line1": "1 44542U 19061A   25349.06687884  .00000112  00000+0  00000+0 0  9998", "line2": "2 44542  54.4001 188.9375 0009564  24.7073 335.4071  1.86229339 42364"}}, "geometry": {"type": "Point", "coordinates": [-115.42363525245474, 49.05000894895565]}}, {"type": "Feature", "properties": {"norad_id": 44543, "name": "BEIDOU-3 M23 (C45)", "group": "beidou", "lat": -15.415959278387179, "lon": 177.47524118508076, "alt_km": 21517.943006136768, "timestamp": "2025-12-16T05:49:09.480257+00:00", "meta": {"OBJECT_NAME": "BEIDOU-3 M23 (C45)", "OBJECT_ID": "2019-061B", "EPOCH": "2025-12-12T05:53:39.748416", "MEAN_MOTION": 1.86227487, "ECCENTRICITY": 0.00061471, "INCLINATION": 54.3988, "RA_OF_ASC_NODE": 189.0008, "ARG_OF_PERICENTER": 23.325, "MEAN_ANOMALY": 158.0349, "EPHEMERIS_TYPE": 0, "CLASSIFICATION_TYPE": "U", "NORAD_CAT_ID": 44543, "ELEMENT_SET_NO": 999, "REV_AT_EPOCH": 4231, "BSTAR": 0, "MEAN_MOTION_DOT": 7.9e-07, "MEAN_MOTION_DDOT": 0}, "tle": {"line1": "1 44543U 19061B   25346.24559894  .00000079  00000+0  00000+0 0  9997", "line2": "2 44543  54.3988 189.0008 0006147  23.3250 158.0349  1.86227487 42313"}}, "geometry": {"type": "Point", "coordinates": [177.47524118508076, -15.415959278387179]}}, {"type": "Feature", "properties": {"norad_id": 44709, "name": "BEIDOU-3 IGSO-3 (C40)", "group": "beidou", "lat": 2.056999554237138, "lon": -75.72354123614144, "alt_km": 35981.021090289425, "timestamp": "2025-12-16T05:49:09.480268+00:00", "meta": {"OBJECT_NAME": "BEIDOU-3 IGSO-3 (C40)", "OBJECT_ID": "2019-073A", "EPOCH": "2025-11-20T07:11:22.740000", "MEAN_MOTION": 1.00250097, "ECCENTRICITY": 0.0044538, "INCLINATION": 55.163, "RA_OF_ASC_NODE": 283.159, "ARG_OF_PERICENTER": 191.5856, "MEAN_ANOMALY": 168.2409, "EPHEMERIS_TYPE": 0, "CLASSIFICATION_TYPE": "U", "NORAD_CAT_ID": 44709, "ELEMENT_SET_NO": 999, "REV_AT_EPOCH": 2236, "BSTAR": 0, "MEAN_MOTION_DOT": -2.06e-06, "MEAN_MOTION_DDOT": 0}, "tle": {"line1": "1 44709U 19073A   25324.29956875 -.00000206  00000+0  00000+0 0  9998", "line2": "2 44709  55.1630 283.1590 0044538 191.5856 168.2409  1.00250097 22360"}}, "geometry": {"type": "Point", "coordinates": [-75.72354123614144, 2.056999554237138]}}, {"type": "Feature", "properties": {"norad_id": 44793, "name": "BEIDOU-3 M22 (C44)", "group": "beidou", "lat": 3.6092211395305998, "lon": 123.62410820722599, "alt_km": 21541.877834586463, "timestamp": "2025-12-16T05:49:09.480283+00:00", "meta": {"OBJECT_NAME": "BEIDOU-3 M22 (C44)", "OBJECT_ID": "2019-078A", "EPOCH": "2025-12-13T07:06:19.529568", "MEAN_MOTION": 1.86231771, "ECCENTRICITY": 0.00057339, "INCLINATION": 54.1075, "RA_OF_ASC_NODE": 306.366, "ARG_OF_PERICENTER": 23.2965, "MEAN_ANOMALY": 336.7192, "EPHEMERIS_TYPE": 0, "CLASSIFICATION_TYPE": "U", "NORAD_CAT_ID": 44793, "ELEMENT_SET_NO": 999, "REV_AT_EPOCH": 4118, "BSTAR": 0, "MEAN_MOTION_DOT": -9.7e-07, "MEAN_MOTION_DDOT": 0}, "tle": {"line1": "1 44793U 19078A   25347.29605937 -.00000097  00000+0  00000+0 0  9999", "line2": "2 44793  54.1075 306.3660 0005733  23.2965 336.7192  1.86231771 41181"}}, "geometry": {"type": "Point", "coordinates": [123.62410820722599, 3.6092211395305998]}}, {"type": "Feature", "properties": {"norad_id": 44794, "name": "BEIDOU-3 M21 (C43)", "group": "beidou", "lat": 53.52070463068564, "lon": 24.638293383614677, "alt_km": 21518.891331272585, "timestamp": "2025-12-16T05:49:09.480294+00:00", "meta": {"OBJECT_NAME": "BEIDOU-3 M21 (C43)", "OBJECT_ID": "2019-078B", "EPOCH": "2025-12-12T21:31:22.326816", "MEAN_MOTION": 1.86227454, "ECCENTRICITY": 0.00039343, "INCLINATION": 54.0813, "RA_OF_ASC_NODE": 306.3451, "ARG_OF_PERICENTER": 10.3646, "MEAN_ANOMALY": 349.6338, "EPHEMERIS_TYPE": 0, "CLASSIFICATION_TYPE": "U", "NORAD_CAT_ID": 44794, "ELEMENT_SET_NO": 999, "REV_AT_EPOCH": 4118, "BSTAR": 0, "MEAN_MOTION_DOT": -9.6e-07, "MEAN_MOTION_DDOT": 0}, "tle": {"line1": "1 44794U 19078B   25346.89678619 -.00000096  00000+0  00000+0 0  9991", "line2": "2 44794  54.0813 306.3451 0003934  10.3646 349.6338  1.86227454 41181"}}, "geometry": {"type": "Point", "coordinates": [24.638293383614677, 53.52070463068564]}}, {"type": "Feature", "properties": {"norad_id": 44864, "name": "BEIDOU-3 M19 (C41)", "group": "beidou", "lat": -55.405975008992584, "lon": -5.431550377552814, "alt_km": 21484.459381776553, "timestamp": "2025-12-16T05:49:09.480305+00:00", "meta": {"OBJECT_NAME": "BEIDOU-3 M19 (C41)", "OBJECT_ID": "2019-090A", "EPOCH": "2025-12-10T23:47:39.658272", "MEAN_MOTION": 1.86231263, "ECCENTRICITY": 0.0017877, "INCLINATION": 56.392, "RA_OF_ASC_NODE": 69.0187, "ARG_OF_PERICENTER": 285.2046, "MEAN_ANOMALY": 73.1126, "EPHEMERIS_TYPE": 0, "CLASSIFICATION_TYPE": "U", "NORAD_CAT_ID": 44864, "ELEMENT_SET_NO": 999, "REV_AT_EPOCH": 4072, "BSTAR": 0, "MEAN_MOTION_DOT": -6e-07, "MEAN_MOTION_DDOT": 0}, "tle": {"line1": "1 44864U 19090A   25344.99143123 -.00000060  00000+0  00000+0 0  9990", "line2": "2 44864  56.3920  69.0187 0017877 285.2046  73.1126  1.86231263 40726"}}, "geometry": {"type": "Point", "coordinates": [-5.431550377552814, -55.405975008992584]}}, {"type": "Feature", "properties": {"norad_id": 44865, "name": "BEIDOU-3 M20 (C42)", "group": "beidou", "lat": 7.1769595075045896, "lon": 73.68360311382921, "alt_km": 21513.526756432046, "timestamp": "2025-12-16T05:49:09.480316+00:00", "meta": {"OBJECT_NAME": "BEIDOU-3 M20 (C42)", "OBJECT_ID": "2019-090B", "EPOCH": "2025-12-10T20:36:05.507712", "MEAN_MOTION": 1.86231317, "ECCENTRICITY": 0.0014897, "INCLINATION": 56.3937, "RA_OF_ASC_NODE": 69.0576, "ARG_OF_PERICENTER": 298.003, "MEAN_ANOMALY": 60.7372, "EPHEMERIS_TYPE": 0, "CLASSIFICATION_TYPE": "U", "NORAD_CAT_ID": 44865, "ELEMENT_SET_NO": 999, "REV_AT_EPOCH": 4070, "BSTAR": 0, "MEAN_MOTION_DOT": -5.8e-07, "MEAN_MOTION_DDOT": 0}, "tle": {"line1": "1 44865U 19090B   25344.85839708 -.00000058  00000+0  00000+0 0  9994", "line2": "2 44865  56.3937  69.0576 0014897 298.0030  60.7372  1.86231317 40704"}}, "geometry": {"type": "Point", "coordinates": [73.68360311382921, 7.1769595075045896]}}, {"type": "Feature", "properties": {"norad_id": 45344, "name": "BEIDOU-3 G2 (C60)", "group": "beidou", "lat": -1.2168493033404688, "lon": -107.60240957113695, "alt_km": 35777.24293981269, "timestamp": "2025-12-16T05:49:09.480328+00:00", "meta": {"OBJECT_NAME": "BEIDOU-3 G2 (C60)", "OBJECT_ID": "2020-017A", "EPOCH": "2025-12-15T22:19:44.846688", "MEAN_MOTION": 1.00273143, "ECCENTRICITY": 0.00043871, "INCLINATION": 2.5031, "RA_OF_ASC_NODE": 43.9298, "ARG_OF_PERICENTER": 270.8917, "MEAN_ANOMALY": 184.9901, "EPHEMERIS_TYPE": 0, "CLASSIFICATION_TYPE": "U", "NORAD_CAT_ID": 45344, "ELEMENT_SET_NO": 999, "REV_AT_EPOCH": 2142, "BSTAR": 0, "MEAN_MOTION_DOT": -1.2e-06, "MEAN_MOTION_DDOT": 0}, "tle": {"line1": "1 45344U 20017A   25349.93038017 -.00000120  00000+0  00000+0 0  9996", "line2": "2 45344   2.5031  43.9298 0004387 270.8917 184.9901  1.00273143 21426"}}, "geometry": {"type": "Point", "coordinates": [-107.60240957113695, -1.2168493033404688]}}, {"type": "Feature", "properties": {"norad_id": 45807, "name": "BEIDOU-3 G3 (C61)", "group": "beidou", "lat": -1.204211557313659, "lon": -77.0936456787698, "alt_km": 35787.036983634636, "timestamp": "2025-12-16T05:49:09.480339+00:00", "meta": {"OBJECT_NAME": "BEIDOU-3 G3 (C61)", "OBJECT_ID": "2020-040A", "EPOCH": "2025-12-15T22:28:29.009568", "MEAN_MOTION": 1.00272652, "ECCENTRICITY": 0.00063409, "INCLINATION": 1.9989, "RA_OF_ASC_NODE": 66.611, "ARG_OF_PERICENTER": 308.2444, "MEAN_ANOMALY": 157.6773, "EPHEMERIS_TYPE": 0, "CLASSIFICATION_TYPE": "U", "NORAD_CAT_ID": 45807, "ELEMENT_SET_NO": 999, "REV_AT_EPOCH": 2023, "BSTAR": 0, "MEAN_MOTION_DOT": -3.33e-06, "MEAN_MOTION_DDOT": 0}, "tle": {"line1": "1 45807U 20040A   25349.93644687 -.00000333  00000+0  00000+0 0  9998", "line2": "2 45807   1.9989  66.6110 0006340 308.2444 157.6773  1.00272652 20238"}}, "geometry": {"type": "Point", "coordinates": [-77.0936456787698, -1.204211557313659]}}, {"type": "Feature", "properties": {"norad_id": 56564, "name": "BEIDOU-3 G4 (C62)", "group": "beidou", "lat": 0.4050002895801346, "lon": -27.51812123179762, "alt_km": 35797.18917248699, "timestamp": "2025-12-16T05:49:09.480351+00:00", "meta": {"OBJECT_NAME": "BEIDOU-3 G4 (C62)", "OBJECT_ID": "2023-066A", "EPOCH": "2025-12-15T22:42:35.160192", "MEAN_MOTION": 1.00271767, "ECCENTRICITY": 0.00028018, "INCLINATION": 0.8078, "RA_OF_ASC_NODE": 302.302, "ARG_OF_PERICENTER": 228.5934, "MEAN_ANOMALY": 54.6581, "EPHEMERIS_TYPE": 0, "CLASSIFICATION_TYPE": "U", "NORAD_CAT_ID": 56564, "ELEMENT_SET_NO": 999, "REV_AT_EPOCH": 955, "BSTAR": 0, "MEAN_MOTION_DOT": -8.8e-07, "MEAN_MOTION_DDOT": 0}, "tle": {"line1": "1 56564U 23066A   25349.94624028 -.00000088  00000+0  00000+0 0  9996", "line2": "2 56564   0.8078 302.3020 0002801 228.5934  54.6581  1.00271767  9554"}}, "geometry": {"type": "Point", "coordinates": [-27.51812123179762, 0.4050002895801346]}}]}